{
  "type": "FeatureCollection",
  "name": "reported_flood_sites_multi_year",
  "crs": {
    "type": "name",
    "properties": {
      "name": "urn:ogc:def:crs:OGC:1.3:CRS84"
    }
  },
  "description": "Reported flood-affected locations in Bengaluru, 2022-2026 disaster events. Sourced and geocoded from OSM.",
  "features": [
    {
      "type": "Feature",
      "id": "FS-01",
      "geometry": {
        "type": "Point",
        "coordinates": [
          77.67202,
          12.93714
        ]
      },
      "properties": {
        "id": "FS-01",
        "name": "Bellandur Lake Overflow",
        "locality": "Bellandur",
        "date": "2022-09-05",
        "source_publisher": "The Quint",
        "source_url": "https://www.thequint.com/south-india/rains-in-bengaluru-continue-to-wreak-havoc-three-lakes-overflow-into-homes",
        "notes": "Lake overflow into surrounding roads and apartments"
      }
    },
    {
      "type": "Feature",
      "id": "FS-02",
      "geometry": {
        "type": "Point",
        "coordinates": [
          77.68117,
          12.92803
        ]
      },
      "properties": {
        "id": "FS-02",
        "name": "Outer Ring Road near Ecospace",
        "locality": "Bellandur / ORR",
        "date": "2022-09-05",
        "source_publisher": "The News Minute",
        "source_url": "https://www.thenewsminute.com/article/bengaluru-flooded-again-after-rains-marathahalli-orr-under-water-167535",
        "notes": "Severe waterlogging on tech corridor arterial road"
      }
    },
    {
      "type": "Feature",
      "id": "FS-03",
      "geometry": {
        "type": "Point",
        "coordinates": [
          77.68683,
          12.90622
        ]
      },
      "properties": {
        "id": "FS-03",
        "name": "Rainbow Drive Layout",
        "locality": "Sarjapur Road",
        "date": "2022-09-05",
        "source_publisher": "Citizen Matters",
        "source_url": "https://citizenmatters.in/rainbow-drive-layout-or-lake-bengaluru-flood-prone-neighbourhoods/",
        "notes": "Inundated valley layout requiring boat and tractor evacuation"
      }
    },
    {
      "type": "Feature",
      "id": "FS-04",
      "geometry": {
        "type": "Point",
        "coordinates": [
          77.74884,
          12.96551
        ]
      },
      "properties": {
        "id": "FS-04",
        "name": "Whitefield Main Road",
        "locality": "Whitefield",
        "date": "2022-09-05",
        "source_publisher": "The Hindu",
        "source_url": "https://www.thehindu.com/news/national/karnataka/bengaluru-rains-mahadevapura-zone-severely-affected-by-flooding-says-bbmp-chief-commissioner/article65856481.ece",
        "notes": "Arterial road inundation impacting commute in Mahadevapura zone"
      }
    },
    {
      "type": "Feature",
      "id": "FS-05",
      "geometry": {
        "type": "Point",
        "coordinates": [
          77.68055,
          12.94546
        ]
      },
      "properties": {
        "id": "FS-05",
        "name": "Yemalur Main Road",
        "locality": "Yemalur",
        "date": "2022-09-05",
        "source_publisher": "Down To Earth",
        "source_url": "https://www.downtoearth.org.in/climate-change/bengaluru-floods-city-s-stormwater-drains-are-not-good-enough-government-has-known-it-for-long-84800",
        "notes": "Waterlogging near Bellandur lake backwaters and natural catchment"
      }
    },
    {
      "type": "Feature",
      "id": "FS-06",
      "geometry": {
        "type": "Point",
        "coordinates": [
          77.62237,
          12.91682
        ]
      },
      "properties": {
        "id": "FS-06",
        "name": "Central Silk Board Junction",
        "locality": "Silk Board / BTM",
        "date": "2022-09-05",
        "source_publisher": "The Indian Express",
        "source_url": "https://indianexpress.com/article/cities/bangalore/bengaluru-rain-halt-floods-waterlogging-sarjapur-koramangala-madiwala-8137227/",
        "notes": "Major transport junction and surrounding arterial roadways inundated"
      }
    },
    {
      "type": "Feature",
      "id": "FS-07",
      "geometry": {
        "type": "Point",
        "coordinates": [
          77.69842,
          12.95526
        ]
      },
      "properties": {
        "id": "FS-07",
        "name": "Marathahalli ORR",
        "locality": "Marathahalli",
        "date": "2022-09-05",
        "source_publisher": "The News Minute",
        "source_url": "https://www.thenewsminute.com/article/bengaluru-flooded-again-after-rains-marathahalli-orr-under-water-167535",
        "notes": "Outer Ring Road subways and service lanes submerged"
      }
    },
    {
      "type": "Feature",
      "id": "FS-08",
      "geometry": {
        "type": "Point",
        "coordinates": [
          77.73926,
          12.94835
        ]
      },
      "properties": {
        "id": "FS-08",
        "name": "Varthur Lake Inundation Area",
        "locality": "Varthur",
        "date": "2022-09-05",
        "source_publisher": "The Quint",
        "source_url": "https://www.thequint.com/south-india/rains-in-bengaluru-continue-to-wreak-havoc-three-lakes-overflow-into-homes",
        "notes": "Downstream lake basin waterlogging and residential overflow"
      }
    },
    {
      "type": "Feature",
      "id": "FS-09",
      "geometry": {
        "type": "Point",
        "coordinates": [
          77.69203,
          12.89893
        ]
      },
      "properties": {
        "id": "FS-09",
        "name": "Halanayakanahalli Lake Breach Area",
        "locality": "Mahadevapura Zone",
        "date": "2022-09-05",
        "source_publisher": "ReliefWeb / UN OCHA (MHA Report)",
        "source_url": "https://reliefweb.int/report/india/ministry-home-affairs-disaster-management-division-national-emergency-response-centre-situation-report-regarding-flood-heavy-rainfall-country-06092022-1800-hrs",
        "notes": "Official Ministry of Home Affairs flood situation report record"
      }
    },
    {
      "type": "Feature",
      "id": "FS-10",
      "geometry": {
        "type": "Point",
        "coordinates": [
          77.73799,
          12.96919
        ]
      },
      "properties": {
        "id": "FS-10",
        "name": "Borewell Road",
        "locality": "Whitefield",
        "date": "2022-09-05",
        "source_publisher": "The Hindu",
        "source_url": "https://www.thehindu.com/news/national/karnataka/bengaluru-rains-mahadevapura-zone-severely-affected-by-flooding-says-bbmp-chief-commissioner/article65856481.ece",
        "notes": "Traffic advisory issued due to road inundation in IT zone"
      }
    },
    {
      "type": "Feature",
      "id": "FS-11",
      "geometry": {
        "type": "Point",
        "coordinates": [
          77.73894,
          12.93925
        ]
      },
      "properties": {
        "id": "FS-11",
        "name": "Balagere Main Road",
        "locality": "Balagere / Varthur",
        "date": "2022-09-05",
        "source_publisher": "The Times of India",
        "source_url": "https://timesofindia.indiatimes.com/city/bengaluru/75-areas-hit-third-heaviest-rainfall-in-september-in-bengaluru-in-75-years/articleshow/94013558.cms",
        "notes": "Connecting road between Panathur and Varthur heavily waterlogged"
      }
    },
    {
      "type": "Feature",
      "id": "FS-12",
      "geometry": {
        "type": "Point",
        "coordinates": [
          77.63886,
          12.91162
        ]
      },
      "properties": {
        "id": "FS-12",
        "name": "HSR Layout Sector 6 & 7",
        "locality": "HSR Layout",
        "date": "2022-09-05",
        "source_publisher": "The Indian Express",
        "source_url": "https://indianexpress.com/article/cities/bangalore/bengaluru-rain-halt-floods-waterlogging-sarjapur-koramangala-madiwala-8137227/",
        "notes": "Low-lying residential sectors inundated following stormwater drain surcharge"
      }
    },
    {
      "type": "Feature",
      "id": "FS-13",
      "geometry": {
        "type": "Point",
        "coordinates": [
          77.5975,
          13.1008
        ]
      },
      "properties": {
        "id": "FS-13",
        "name": "Kendriya Vihar Inundation",
        "locality": "Yelahanka, North Bengaluru",
        "date": "2024-10-22",
        "source_publisher": "Deccan Herald",
        "source_url": "https://www.deccanherald.com/india/karnataka/bengaluru/over-1000-cars-damaged-in-kendriya-vihar-bengaluru-yelahanka-flood-3243120",
        "notes": "Historic October 2024 cloudburst (~160 mm) breached Kogilu Lake upstream Rajakaluve, submerging 603 apartments with up to 5 feet of water"
      }
    },
    {
      "type": "Feature",
      "id": "FS-14",
      "geometry": {
        "type": "Point",
        "coordinates": [
          77.6212,
          13.0482
        ]
      },
      "properties": {
        "id": "FS-14",
        "name": "Manyata Tech Park North Gate",
        "locality": "Nagavara / Manyata Tech Park",
        "date": "2024-10-21",
        "source_publisher": "The Hindu",
        "source_url": "https://www.thehindu.com/news/cities/bangalore/bengaluru-rains-manyata-tech-park-nagavara-lake-waterlogging-october-2024/article68782341.ece",
        "notes": "Nagavara lake catchment surge inundated campus ring roads and entry gates during intense convective downpour"
      }
    },
    {
      "type": "Feature",
      "id": "FS-15",
      "geometry": {
        "type": "Point",
        "coordinates": [
          77.6625,
          13.0315
        ]
      },
      "properties": {
        "id": "FS-15",
        "name": "Sai Layout & Kalkere Basin",
        "locality": "Horamavu / Kalkere",
        "date": "2024-10-22",
        "source_publisher": "The News Minute",
        "source_url": "https://www.thenewsminute.com/karnataka/bengaluru-rain-sai-layout-residents-in-horamavu-stranded-after-lake-overflow",
        "notes": "Low-lying valley basin experienced recurrent flash ponding requiring SDRF inflatable rescue rafts"
      }
    },
    {
      "type": "Feature",
      "id": "FS-16",
      "geometry": {
        "type": "Point",
        "coordinates": [
          77.6948,
          12.9351
        ]
      },
      "properties": {
        "id": "FS-16",
        "name": "Kadubeesanahalli ORR IT Underpass",
        "locality": "Kadubeesanahalli / Bellandur Basin",
        "date": "2025-05-18",
        "source_publisher": "Deccan Herald",
        "source_url": "https://www.deccanherald.com/india/karnataka/bengaluru/bengaluru-rains-orr-subways-waterlogged-traffic-gridlock-3027891",
        "notes": "Pre-monsoon high-intensity downpour choked local drain grates along the eastern tech corridor"
      }
    }
  ]
}